[{"OBJECT_NAME":"GOMX-1","OBJECT_ID":"2013-066Q","EPOCH":"2026-03-09T23:03:54.857376","MEAN_MOTION":14.69103088,"ECCENTRICITY":0.01302226,"INCLINATION":97.6568,"RA_OF_ASC_NODE":275.6493,"ARG_OF_PERICENTER":36.6495,"MEAN_ANOMALY":324.3532,"EPHEMERIS_TYPE":0,"CLASSIFICATION_TYPE":"U","NORAD_CAT_ID":39430,"ELEMENT_SET_NO":999,"REV_AT_EPOCH":65534,"BSTAR":0.00051711143,"MEAN_MOTION_DOT":3.409e-5,"MEAN_MOTION_DDOT":0},{"OBJECT_NAME":"SCATSAT 1","OBJECT_ID":"2016-059H","EPOCH":"2026-03-09T17:18:57.175776","MEAN_MOTION":14.7926349,"ECCENTRICITY":0.00544061,"INCLINATION":98.1298,"RA_OF_ASC_NODE":131.4325,"ARG_OF_PERICENTER":207.4011,"MEAN_ANOMALY":152.4328,"EPHEMERIS_TYPE":0,"CLASSIFICATION_TYPE":"U","NORAD_CAT_ID":41790,"ELEMENT_SET_NO":999,"REV_AT_EPOCH":8688,"BSTAR":0.00025357446,"MEAN_MOTION_DOT":1.875e-5,"MEAN_MOTION_DDOT":0}]
